{
    "links": {
        "self": "http://www.neowsapp.com/rest/v1/neo/3842937?api_key=iIulBulltgU6a56xZRHN4H3l9WmuAYTsLGpBGhQ2"
    },
    "id": "3842937",
    "neo_reference_id": "3842937",
    "name": "(2019 MD1)",
    "designation": "2019 MD1",
    "nasa_jpl_url": "http://ssd.jpl.nasa.gov/sbdb.cgi?sstr=3842937",
    "absolute_magnitude_h": 26.4,
    "estimated_diameter": {
        "kilometers": {
            "estimated_diameter_min": 0.0139493823,
            "estimated_diameter_max": 0.0311917671
        },
        "meters": {
            "estimated_diameter_min": 13.9493822934,
            "estimated_diameter_max": 31.1917670523
        },
        "miles": {
            "estimated_diameter_min": 0.0086677416,
            "estimated_diameter_max": 0.0193816595
        },
        "feet": {
            "estimated_diameter_min": 45.7656914036,
            "estimated_diameter_max": 102.3351970157
        }
    },
    "is_potentially_hazardous_asteroid": false,
    "close_approach_data": [
        {
            "close_approach_date": "2019-07-02",
            "close_approach_date_full": "2019-Jul-02 13:04",
            "epoch_date_close_approach": 1562072640000,
            "relative_velocity": {
                "kilometers_per_second": "9.4609077802",
                "kilometers_per_hour": "34059.2680085536",
                "miles_per_hour": "21163.104613426"
            },
            "miss_distance": {
                "astronomical": "0.0263190563",
                "lunar": "10.2381129007",
                "kilometers": "3937274.762890081",
                "miles": "2446509.0915258778"
            },
            "orbiting_body": "Earth"
        }
    ],
    "orbital_data": {
        "orbit_id": "4",
        "orbit_determination_date": "2019-07-27 14:02:17",
        "first_observation_date": "2019-06-22",
        "last_observation_date": "2019-06-30",
        "data_arc_in_days": 8,
        "observations_used": 21,
        "orbit_uncertainty": "8",
        "minimum_orbit_intersection": ".0260263",
        "jupiter_tisserand_invariant": "3.561",
        "epoch_osculation": "2458658.5",
        "eccentricity": ".5278876495884751",
        "semi_major_axis": "2.089319431340087",
        "inclination": "6.065726389103665",
        "ascending_node_longitude": "268.9187550064803",
        "orbital_period": "1103.07665101748",
        "perihelion_distance": ".9863935074904393",
        "perihelion_argument": "40.64853052447632",
        "aphelion_distance": "3.192245355189736",
        "perihelion_time": "2458691.255813607957",
        "mean_anomaly": "349.309815516458",
        "mean_motion": ".3263599131283717",
        "equinox": "J2000",
        "orbit_class": {
            "orbit_class_type": "APO",
            "orbit_class_description": "Near-Earth asteroid orbits which cross the Earth’s orbit similar to that of 1862 Apollo",
            "orbit_class_range": "a (semi-major axis) > 1.0 AU; q (perihelion) < 1.017 AU"
        }
    },
    "is_sentry_object": false
}